OBJECT_NAME,OBJECT_ID,EPOCH,MEAN_MOTION,ECCENTRICITY,INCLINATION,RA_OF_ASC_NODE,ARG_OF_PERICENTER,MEAN_ANOMALY,EPHEMERIS_TYPE,CLASSIFICATION_TYPE,NORAD_CAT_ID,ELEMENT_SET_NO,REV_AT_EPOCH,BSTAR,MEAN_MOTION_DOT,MEAN_MOTION_DDOT
STARLINK-2252,2021-041AU,2026-06-05T13:35:41.342208,15.31699274,.00008093,53.1623,100.1352,83.9879,276.1214,0,U,48595,999,27968,.69024137E-4,.1778E-4,0
STARLINK-2253,2021-041AV,2026-06-05T02:41:54.035808,15.31714146,.00012461,53.1585,92.8956,114.3925,245.7207,0,U,48596,999,27894,.17706258E-3,.5136E-4,0
STARLINK-2255,2021-041AW,2026-06-05T02:48:36.533664,15.31715771,.0001471,53.1591,92.8406,109.9600,250.1560,0,U,48597,999,27975,.18125678E-3,.5266E-4,0
STARLINK-2713,2021-041BB,2026-06-05T16:00:01.999584,15.31656811,.00011243,53.1578,64.5950,104.6503,83.3789,0,U,48602,999,588,.19299262E-2,.59924E-3,0
STARLINK-2714,2021-041BC,2026-06-05T11:15:05.682528,15.29357822,.00012525,53.1592,66.3315,94.8492,265.2652,0,U,48603,999,28014,.44562769E-4,.93E-5,0
STARLINK-2757,2021-041BD,2026-06-05T13:49:06.852864,15.31712015,.00011231,53.1606,100.1135,63.3468,296.7648,0,U,48604,999,27968,.10964757E-3,.304E-4,0
STARLINK-2739,2021-044B,2026-06-05T22:40:41.043936,15.31712114,.0001104,53.1592,63.3126,89.0316,271.0812,0,U,48639,999,27734,.1014E-2,.31244E-3,0
STARLINK-2736,2021-044C,2026-06-05T10:49:15.104064,15.31696439,.00013927,53.1607,65.5792,84.3404,275.7756,0,U,48640,999,27726,.10525311E-3,.2902E-4,0
STARLINK-2754,2021-044D,2026-06-05T23:54:04.419072,15.31698446,.0001022,53.1590,63.3156,97.3907,262.7211,0,U,48641,999,27735,.88612E-4,.2386E-4,0
STARLINK-2646,2021-044E,2026-06-05T23:54:30.261312,15.31761368,.0001593,53.1619,63.1552,134.0768,226.0364,0,U,48642,999,27735,.97349E-3,.30023E-3,0
STARLINK-2704,2021-044F,2026-06-05T10:48:46.500480,15.31714646,.00011494,53.1585,65.6415,87.1678,272.9455,0,U,48643,999,27727,.12809211E-3,.3613E-4,0
STARLINK-2695,2021-044G,2026-06-05T11:08:56.431392,15.31701230,.00010829,53.1596,65.7527,88.8328,271.2798,0,U,48644,999,27727,.60494507E-4,.1513E-4,0
STARLINK-2732,2021-044J,2026-06-05T10:35:19.660992,15.31724061,.00009022,53.1567,65.7002,98.0039,262.1065,0,U,48646,999,27727,.18781046E-3,.5472E-4,0
STARLINK-2521,2021-044L,2026-06-05T16:00:01.999584,15.31669159,.00012105,53.1581,64.7674,85.2898,53.0194,0,U,48648,999,583,.16715834E-2,.51817E-3,0
STARLINK-2673,2021-044M,2026-06-05T00:51:26.017056,15.31714128,.00012075,53.1589,67.5184,92.3182,267.7958,0,U,48649,999,27720,.13470455E-3,.3819E-4,0
STARLINK-2672,2021-044N,2026-06-06T00:00:02.998944,15.31703127,.0001119,53.1579,63.1632,94.7930,134.1194,0,U,48650,999,587,.27678E-3,.8234E-4,0
STARLINK-2731,2021-044P,2026-06-05T00:58:10.303392,15.31717377,.00009685,53.1584,67.6253,95.4191,264.6921,0,U,48651,999,27720,.29580202E-3,.883E-4,0
STARLINK-2727,2021-044Q,2026-06-05T23:19:17.268096,15.73333073,.000252,53.0483,46.1505,220.4875,139.5956,0,U,48652,999,27756,.1011E-2,.1446E-2,0
STARLINK-2720,2021-044R,2026-06-05T22:33:28.465056,15.31700123,.000108,53.1592,63.3601,87.7084,272.4041,0,U,48653,999,27734,.13108E-3,.3705E-4,0
STARLINK-2657,2021-044T,2026-06-05T00:44:45.130560,15.31709729,.00011217,53.1594,67.7109,96.9943,263.1186,0,U,48655,999,27720,.52705275E-4,.1271E-4,0
STARLINK-2701,2021-044U,2026-06-05T11:15:36.469440,15.31701022,.00010593,53.1614,65.5240,94.2812,265.8311,0,U,48656,999,27727,.86261318E-4,.2313E-4,0
STARLINK-2734,2021-044V,2026-06-05T11:29:02.832000,15.31707876,.00010782,53.1586,65.5924,117.3693,242.7418,0,U,48657,999,27727,.65277252E-4,.1662E-4,0
STARLINK-2647,2021-044W,2026-06-05T10:49:41.039616,15.30226494,.00010824,53.1573,66.1963,93.1210,266.9915,0,U,48658,999,27726,.33627353E-3,.9621E-4,0
STARLINK-2717,2021-044X,2026-06-05T21:59:54.685824,15.31699362,.0001211,53.1598,63.4550,95.7176,264.3963,0,U,48659,999,27734,.53868E-4,.1307E-4,0
STARLINK-2726,2021-044AA,2026-06-05T11:20:22.497504,15.29355038,.00013798,53.1585,66.2235,92.4185,267.6973,0,U,48662,999,27725,.11195294E-4,-.33E-6,0
STARLINK-2667,2021-044AB,2026-06-05T23:24:15.972768,15.31706210,.0001642,53.1628,53.2263,101.8974,258.2211,0,U,48663,999,27749,.85132E-4,.2278E-4,0
STARLINK-2666,2021-044AE,2026-06-05T10:46:14.871072,15.29358192,.00010917,53.1584,66.3969,95.9873,264.1252,0,U,48666,999,27724,.82072682E-4,.2013E-4,0
STARLINK-2735,2021-044AF,2026-06-05T10:58:34.232160,15.29366728,.00012251,53.1578,66.2532,110.2726,249.8406,0,U,48667,999,27725,.96366396E-4,.2427E-4,0
STARLINK-2738,2021-044AG,2026-06-05T23:17:34.014048,15.31697959,.0001496,53.1613,53.2978,76.2820,283.8348,0,U,48668,999,27749,.51E-4,.1217E-4,0
STARLINK-2707,2021-044AH,2026-06-05T23:30:58.648608,15.31737468,.0001263,53.1595,53.3785,143.5983,216.5105,0,U,48669,999,27748,.27207E-3,.8096E-4,0
