[ {"name": "STARLINK-2252", "line1": "1 48595U 21041AU  26156.56645072  .00001778  00000+0  69024-4 0  9991", "line2": "2 48595  53.1623 100.1352 0000809  83.9879 276.1214 15.31699274279688"}, {"name": "STARLINK-2253", "line1": "1 48596U 21041AV  26156.11243097  .00005136  00000+0  17706-3 0  9995", "line2": "2 48596  53.1585  92.8956 0001246 114.3925 245.7207 15.31714146278948"}, {"name": "STARLINK-2255", "line1": "1 48597U 21041AW  26156.11708951  .00005266  00000+0  18126-3 0  9992", "line2": "2 48597  53.1591  92.8406 0001471 109.9600 250.1560 15.31715771279753"}, {"name": "STARLINK-2713", "line1": "1 48602U 21041BB  26156.66668981  .00059924  00000+0  19299-2 0  9998", "line2": "2 48602  53.1578  64.5950 0001124 104.6503  83.3789 15.31656811  5883"}, {"name": "STARLINK-2714", "line1": "1 48603U 21041BC  26156.46881577  .00000930  00000+0  44563-4 0  9992", "line2": "2 48603  53.1592  66.3315 0001252  94.8492 265.2652 15.29357822280145"}, {"name": "STARLINK-2757", "line1": "1 48604U 21041BD  26156.57577376  .00003040  00000+0  10965-3 0  9997", "line2": "2 48604  53.1606 100.1135 0001123  63.3468 296.7648 15.31712015279683"}, {"name": "STARLINK-2739", "line1": "1 48639U 21044B   26156.94491949  .00031244  00000+0  10140-2 0  9991", "line2": "2 48639  53.1592  63.3126 0001104  89.0316 271.0812 15.31712114277341"}, {"name": "STARLINK-2736", "line1": "1 48640U 21044C   26156.45086926  .00002902  00000+0  10525-3 0  9991", "line2": "2 48640  53.1607  65.5792 0001392  84.3404 275.7756 15.31696439277268"}, {"name": "STARLINK-2754", "line1": "1 48641U 21044D   26156.99588448  .00002386  00000+0  88612-4 0  9996", "line2": "2 48641  53.1590  63.3156 0001022  97.3907 262.7211 15.31698446277354"}, {"name": "STARLINK-2646", "line1": "1 48642U 21044E   26156.99618358  .00030023  00000+0  97349-3 0  9996", "line2": "2 48642  53.1619  63.1552 0001593 134.0768 226.0364 15.31761368277358"}, {"name": "STARLINK-2704", "line1": "1 48643U 21044F   26156.45053820  .00003613  00000+0  12809-3 0  9998", "line2": "2 48643  53.1585  65.6415 0001149  87.1678 272.9455 15.31714646277270"}, {"name": "STARLINK-2695", "line1": "1 48644U 21044G   26156.46454203  .00001513  00000+0  60495-4 0  9992", "line2": "2 48644  53.1596  65.7527 0001082  88.8328 271.2798 15.31701230277271"}, {"name": "STARLINK-2732", "line1": "1 48646U 21044J   26156.44119978  .00005472  00000+0  18781-3 0  9997", "line2": "2 48646  53.1567  65.7002 0000902  98.0039 262.1065 15.31724061277274"}, {"name": "STARLINK-2521", "line1": "1 48648U 21044L   26156.66668981  .00051817  00000+0  16716-2 0  9995", "line2": "2 48648  53.1581  64.7674 0001210  85.2898  53.0194 15.31669159  5837"}, {"name": "STARLINK-2673", "line1": "1 48649U 21044M   26156.03571779  .00003819  00000+0  13470-3 0  9999", "line2": "2 48649  53.1589  67.5184 0001207  92.3182 267.7958 15.31714128277205"}, {"name": "STARLINK-2672", "line1": "1 48650U 21044N   26157.00003471  .00008234  00000+0  27678-3 0  9999", "line2": "2 48650  53.1579  63.1632 0001119  94.7930 134.1194 15.31703127  5873"}, {"name": "STARLINK-2731", "line1": "1 48651U 21044P   26156.04039703  .00008830  00000+0  29580-3 0  9996", "line2": "2 48651  53.1584  67.6253 0000968  95.4191 264.6921 15.31717377277203"}, {"name": "STARLINK-2727", "line1": "1 48652U 21044Q   26156.97172764  .00144600  00000+0  10110-2 0  9998", "line2": "2 48652  53.0483  46.1505 0002520 220.4875 139.5956 15.73333073277568"}, {"name": "STARLINK-2720", "line1": "1 48653U 21044R   26156.93991279  .00003705  00000+0  13108-3 0  9996", "line2": "2 48653  53.1592  63.3601 0001080  87.7084 272.4041 15.31700123277341"}, {"name": "STARLINK-2657", "line1": "1 48655U 21044T   26156.03107790  .00001271  00000+0  52705-4 0  9999", "line2": "2 48655  53.1594  67.7109 0001121  96.9943 263.1186 15.31709729277201"}, {"name": "STARLINK-2701", "line1": "1 48656U 21044U   26156.46917210  .00002313  00000+0  86261-4 0  9995", "line2": "2 48656  53.1614  65.5240 0001059  94.2812 265.8311 15.31701022277277"}, {"name": "STARLINK-2734", "line1": "1 48657U 21044V   26156.47850500  .00001662  00000+0  65277-4 0  9995", "line2": "2 48657  53.1586  65.5924 0001078 117.3693 242.7418 15.31707876277275"}, {"name": "STARLINK-2647", "line1": "1 48658U 21044W   26156.45116944  .00009621  00000+0  33627-3 0  9997", "line2": "2 48658  53.1573  66.1963 0001082  93.1210 266.9915 15.30226494277263"}, {"name": "STARLINK-2717", "line1": "1 48659U 21044X   26156.91660516  .00001307  00000+0  53868-4 0  9991", "line2": "2 48659  53.1598  63.4550 0001211  95.7176 264.3963 15.31699362277349"}, {"name": "STARLINK-2726", "line1": "1 48662U 21044AA  26156.47248261 -.00000033  00000+0  11195-4 0  9998", "line2": "2 48662  53.1585  66.2235 0001379  92.4185 267.6973 15.29355038277252"}, {"name": "STARLINK-2667", "line1": "1 48663U 21044AB  26156.97518487  .00002278  00000+0  85132-4 0  9998", "line2": "2 48663  53.1628  53.2263 0001642 101.8974 258.2211 15.31706210277494"}, {"name": "STARLINK-2666", "line1": "1 48666U 21044AE  26156.44878323  .00002013  00000+0  82073-4 0  9999", "line2": "2 48666  53.1584  66.3969 0001091  95.9873 264.1252 15.29358192277248"}, {"name": "STARLINK-2735", "line1": "1 48667U 21044AF  26156.45734065  .00002427  00000+0  96366-4 0  9994", "line2": "2 48667  53.1578  66.2532 0001225 110.2726 249.8406 15.29366728277250"}, {"name": "STARLINK-2738", "line1": "1 48668U 21044AG  26156.97053257  .00001217  00000+0  51000-4 0  9991", "line2": "2 48668  53.1613  53.2978 0001496  76.2820 283.8348 15.31697959277492"}, {"name": "STARLINK-2707", "line1": "1 48669U 21044AH  26156.97984547  .00008096  00000+0  27207-3 0  9990", "line2": "2 48669  53.1595  53.3785 0001263 143.5983 216.5105 15.31737468277482"}]